{"type":"FeatureCollection","name":"va-area-simple","crs":{"type":"name","properties":{"name":"urn:ogc:def:crs:OGC:1.3:CRS84"}},"xy_coordinate_resolution":1e-10,"features":[{"type":"Feature","properties":{},"geometry":{"type":"Polygon","coordinates":[[[-77.2790646,38.5336129],[-77.2725515,38.5516806],[-77.2564702,38.5608725],[-77.2464297,38.5932767],[-77.1996829,38.619134],[-77.1303635,38.6348975],[-77.1363615,38.6472769],[-77.132752,38.674013],[-77.1050071,38.6970992],[-77.0737184,38.7115584],[-77.04366,38.717926],[-77.0372055,38.8145861],[-77.0463067,38.8411974],[-77.0345235,38.8400531],[-77.0383778,38.8676142],[-77.0593075,38.8808941],[-77.07071,38.9010459],[-77.1033922,38.9130634],[-77.1468381,38.9644491],[-77.1975533,38.9666826],[-77.2447237,38.9827091],[-77.255896,39.0022847],[-77.2486622,39.026822],[-77.3399354,39.0627732],[-77.385786,39.0621081],[-77.4622466,39.0761923],[-77.4864628,39.1100828],[-77.5205479,39.1213475],[-77.5269232,39.1372375],[-77.5084198,39.1805514],[-77.4776402,39.1904262],[-77.4601246,39.2284119],[-77.484664,39.246123],[-77.5404443,39.2649867],[-77.5605636,39.2858479],[-77.5681687,39.3065229],[-77.5925169,39.3012107],[-77.6439581,39.308572],[-77.6754872,39.324377],[-77.7171983,39.3206976],[-77.7348869,39.3126267],[-77.757596,39.2649452],[-77.7707891,39.2545379],[-77.7714439,39.2366274],[-77.7985346,39.1995357],[-77.806049,39.171737],[-77.8281485,39.1322818],[-78.0329703,39.2644849],[-78.158194,39.343392],[-78.262785,39.414323],[-78.347087,39.466012],[-78.346718,39.427618],[-78.359352,39.412534],[-78.343214,39.388807],[-78.366867,39.35929],[-78.338958,39.349889],[-78.360035,39.317771],[-78.419422,39.257476],[-78.399669,39.243874],[-78.405585,39.231176],[-78.438651,39.198049],[-78.403697,39.167451],[-78.427294,39.152726],[-78.459869,39.113351],[-78.478426,39.109843],[-78.516479,39.081802],[-78.571901,39.031995],[-78.550467,39.018065],[-78.601655,38.964603],[-78.620453,38.982601],[-78.646589,38.968138],[-78.680456,38.925313],[-78.716168,38.90483],[-78.717076,38.936028],[-78.738921,38.927283],[-78.759085,38.900529],[-78.788031,38.885123],[-78.821167,38.830982],[-78.869615,38.7627861],[-78.993997,38.850102],[-79.006152,38.824512],[-79.019553,38.817912],[-79.027253,38.792113],[-79.054954,38.785713],[-79.051554,38.772613],[-79.072555,38.747513],[-79.092755,38.702315],[-79.084355,38.686516],[-79.092955,38.659517],[-79.129757,38.655017],[-79.159158,38.601219],[-79.158657,38.592319],[-79.184058,38.55152],[-79.205859,38.524521],[-79.210591,38.492913],[-79.240059,38.469841],[-79.267414,38.438322],[-79.312277,38.411876],[-79.4765736,38.4571272],[-79.5216605,38.534089],[-79.5544137,38.5596627],[-79.5719641,38.5630583],[-79.6492004,38.5915278],[-79.6628226,38.5706472],[-79.6730164,38.5287336],[-79.6621579,38.5154083],[-79.6804716,38.5105875],[-79.6976284,38.48707],[-79.6899846,38.4310587],[-79.7072384,38.4149751],[-79.7317619,38.3736356],[-79.7255574,38.3644845],[-79.742189,38.35321],[-79.7644618,38.3564746],[-79.7731113,38.3356037],[-79.7965847,38.3234463],[-79.8100908,38.3048031],[-79.786583,38.2748502],[-79.8148632,38.2515669],[-79.8307106,38.2497118],[-79.8973351,38.1933801],[-79.9210286,38.1799534],[-79.9148872,38.1675209],[-79.9290343,38.1397721],[-79.9451864,38.1319859],[-79.9380459,38.1107596],[-79.9263267,38.1071514],[-79.9535105,38.0814872],[-79.9784286,38.0290818],[-80.0088955,37.9908287],[-80.0369085,37.9659069],[-80.0696269,37.9453388],[-80.1417295,37.8824349],[-80.161629,37.8754757],[-80.1862609,37.8377146],[-80.2179831,37.8102358],[-80.2294155,37.7922677],[-80.2165004,37.7757489],[-80.2481107,37.76846],[-80.2627161,37.7383439],[-80.2517964,37.7294823],[-80.2820228,37.6980327],[-80.306957,37.689701],[-80.2672926,37.6460507],[-80.2208626,37.6277744],[-80.258919,37.595499],[-80.328504,37.564315],[-80.312393,37.546239],[-80.330306,37.536244],[-80.309346,37.527381],[-80.282385,37.533517],[-80.299789,37.508271],[-80.332038,37.493744],[-80.366838,37.484879],[-80.36317,37.480001],[-80.475601,37.422949],[-80.494867,37.43507],[-80.492981,37.457749],[-80.511391,37.4816738],[-80.552036,37.473563],[-80.6014807,37.4458493],[-80.705203,37.394618],[-80.770082,37.372363],[-80.7855713,37.3953063],[-80.836446,37.424355],[-80.859556,37.429568],[-80.862761,37.411829],[-80.883248,37.383933],[-80.849451,37.346909],[-80.900535,37.315],[-80.947896,37.295872],[-80.973889,37.291444],[-80.979589,37.302279],[-81.037191,37.290251],[-81.112596,37.278497],[-81.167029,37.262881],[-81.225097,37.2348697],[-81.320105,37.299323],[-81.362092,37.3377545],[-81.3724063,37.3203778],[-81.3941074,37.3163613],[-81.416395,37.2731707],[-81.4370323,37.2740666],[-81.4837613,37.2505945],[-81.4988991,37.2580325],[-81.5068287,37.2347146],[-81.541175,37.2199068],[-81.5561024,37.2073496],[-81.6781083,37.2014139],[-81.6836224,37.211607],[-81.7156896,37.2286604],[-81.722845,37.2402693],[-81.7400737,37.237573],[-81.7461293,37.2637221],[-81.7822492,37.2821489],[-81.8193441,37.279332],[-81.8534894,37.2876687],[-81.8546825,37.3066423],[-81.8739922,37.3275399],[-81.8911978,37.3316525],[-81.9283806,37.3602427],[-81.9359472,37.3787151],[-81.922969,37.4113747],[-81.9378539,37.4199422],[-81.9352328,37.4366335],[-81.9921732,37.4607824],[-81.9965312,37.4768229],[-81.9778128,37.4844462],[-81.9395423,37.5127472],[-81.967705,37.5377829],[-82.124854,37.427272],[-82.316234,37.294654],[-82.324725,37.283042],[-82.343841,37.280739],[-82.348726,37.268232],[-82.48655,37.231188],[-82.532988,37.206626],[-82.550053,37.204588],[-82.623609,37.164438],[-82.726688,37.114794],[-82.722433,37.044949],[-82.742759,37.042796],[-82.747813,37.024538],[-82.758976,37.027453],[-82.782863,37.007821],[-82.822253,37.004158],[-82.870989,36.96829],[-82.855912,36.953012],[-82.857644,36.92885],[-82.877379,36.908471],[-82.8787506,36.8893576],[-82.9691885,36.8579695],[-82.9984689,36.8566003],[-83.0066335,36.8477019],[-83.0266861,36.8555657],[-83.0727071,36.8545314],[-83.0750193,36.8409572],[-83.1021953,36.827974],[-83.0986889,36.8130012],[-83.1234965,36.7865337],[-83.1331616,36.7845165],[-83.1281591,36.7504301],[-83.1351114,36.7425508],[-83.1942058,36.7394817],[-83.2914519,36.712979],[-83.3477837,36.7000339],[-83.3865181,36.6866865],[-83.4186922,36.6686828],[-83.466483,36.6647],[-83.493911,36.670085],[-83.531912,36.664984],[-83.577312,36.641784],[-83.648314,36.622683],[-83.6753671,36.6007706],[-83.5745497,36.5974714],[-83.2763,36.598187],[-83.261099,36.593887],[-82.888013,36.593461],[-82.466613,36.594481],[-82.214198,36.595846],[-82.1743008,36.5947446],[-81.934144,36.594213],[-81.922644,36.616213],[-81.6472191,36.6117066],[-81.6774572,36.588157],[-81.6010477,36.5869277],[-81.5200843,36.5804591],[-81.3749355,36.5747036],[-81.307511,36.575024],[-81.176712,36.5717813],[-81.0038778,36.5636594],[-80.8376409,36.559118],[-80.7049399,36.562244],[-80.2946368,36.5439451],[-80.122183,36.542646],[-79.9107398,36.5426969],[-79.5631402,36.541028],[-79.24974,36.541139],[-78.971814,36.542123],[-78.663317,36.542011],[-78.509965,36.541065],[-78.4631925,36.5424577],[-78.2514311,36.5444417],[-78.0462533,36.5434863],[-77.70121,36.545815],[-77.1526778,36.5440866],[-76.9159725,36.5438889],[-76.915902,36.5521565],[-76.7433856,36.55075],[-76.2480589,36.5504382],[-75.797497,36.550916],[-75.819825,36.625153],[-75.874647,36.744305],[-75.92685,36.936457],[-75.8867018,37.0556781],[-75.8347829,37.0927192],[-75.8237794,37.1081972],[-75.7876361,37.1334168],[-75.7541449,37.167903],[-75.7309449,37.2116362],[-75.7313569,37.245301],[-75.7185166,37.2717452],[-75.6935914,37.299969],[-75.6545642,37.3257456],[-75.6420758,37.3464233],[-75.6444104,37.3751375],[-75.6108163,37.4130514],[-75.595642,37.465584],[-75.555061,37.526677],[-75.528423,37.561308],[-75.531096,37.591823],[-75.541779,37.606145],[-75.516264,37.65703],[-75.515962,37.671538],[-75.460933,37.771356],[-75.417073,37.82105],[-75.366857,37.809789],[-75.337979,37.815232],[-75.296004,37.845752],[-75.238073,37.93539],[-75.166435,38.027834],[-75.2418015,38.0274595],[-75.624471,37.994008],[-75.648228,37.966771],[-75.6374659,37.952269],[-75.6448221,37.9379112],[-75.6761489,37.9450232],[-75.7010477,37.9340289],[-75.7149194,37.943363],[-75.7317926,37.9339915],[-75.7721005,37.8932016],[-75.813907,37.912039],[-75.882939,37.911335],[-75.952672,37.906827],[-75.943693,37.946133],[-75.993338,37.953487],[-76.0519915,37.9535378],[-76.2366082,37.8865288],[-76.257527,37.905738],[-76.338617,37.945286],[-76.412934,37.966332],[-76.465008,38.01322],[-76.516609,38.026783],[-76.51616,38.04492],[-76.535402,38.073626],[-76.596128,38.106892],[-76.610384,38.148516],[-76.700899,38.161359],[-76.800199,38.16888],[-76.839368,38.163609],[-76.87849,38.173764],[-76.915867,38.199603],[-76.94902,38.208418],[-76.962251,38.229888],[-76.962035,38.256893],[-76.981487,38.274606],[-77.0011895,38.2800754],[-77.030662,38.311578],[-77.0152712,38.3318274],[-77.01168,38.3742649],[-77.041807,38.4007357],[-77.0561187,38.3964378],[-77.084282,38.3685784],[-77.1386274,38.367663],[-77.1580931,38.3484408],[-77.2425218,38.3308797],[-77.284642,38.3426642],[-77.2883463,38.3595399],[-77.3050087,38.3753928],[-77.3231775,38.4353668],[-77.3187931,38.4720869],[-77.2790646,38.5336129]]]}}]}
